{
 "features": [
  {
   "geometry": {
    "coordinates": [
     [
      [
       [
        0.0,
        0.0
       ],
       [
        0.0,
        29.7
       ],
       [
        29.7,
        29.7
       ],
       [
        29.7,
        0.0
       ],
       [
        0.0,
        0.0
       ]
      ]
     ]
    ],
    "type": "MultiPolygon"
   },
   "properties": {
    "elevation": 0
   },
   "type": "Feature"
  },
  {
   "geometry": {
    "coordinates": [
     [
      [
       [
        17.4,
        5.1
       ],
       [
        13.2,
        5.3999999999999995
       ],
       [
        12.299999999999999,
        6.0
       ],
       [
        10.5,
        6.0
       ],
       [
        9.6,
        6.3
       ],
       [
        8.1,
        7.199999999999999
       ],
       [
        6.3,
        9.0
       ],
       [
        5.3999999999999995,
        10.5
       ],
       [
        5.1,
        11.1
       ],
       [
        4.8,
        11.7
       ],
       [
        4.5,
        12.6
       ],
       [
        4.5,
        18.3
       ],
       [
        4.2,
        20.099999999999998
       ],
       [
        3.3,
        22.2
       ],
       [
        3.0,
        23.4
       ],
       [
        2.6999999999999997,
        24.599999999999998
       ],
       [
        2.6999999999999997,
        26.099999999999998
       ],
       [
        3.3,
        26.7
       ],
       [
        3.9,
        27.0
       ],
       [
        4.5,
        27.3
       ],
       [
        5.7,
        27.599999999999998
       ],
       [
        9.0,
        28.5
       ],
       [
        17.4,
        28.5
       ],
       [
        18.599999999999998,
        28.2
       ],
       [
        19.5,
        27.9
       ],
       [
        20.099999999999998,
        27.599999999999998
       ],
       [
        20.7,
        27.3
       ],
       [
        21.599999999999998,
        26.4
       ],
       [
        21.9,
        25.5
       ],
       [
        22.5,
        24.599999999999998
       ],
       [
        23.099999999999998,
        24.0
       ],
       [
        23.4,
        24.0
       ],
       [
        24.0,
        23.4
       ],
       [
        24.599999999999998,
        22.8
       ],
       [
        25.2,
        22.2
       ],
       [
        26.099999999999998,
        20.7
       ],
       [
        27.599999999999998,
        18.3
       ],
       [
        27.9,
        17.7
       ],
       [
        28.2,
        16.8
       ],
       [
        28.5,
        15.899999999999999
       ],
       [
        28.5,
        10.2
       ],
       [
        27.599999999999998,
        8.4
       ],
       [
        26.7,
        6.8999999999999995
       ],
       [
        26.099999999999998,
        6.3
       ],
       [
        25.5,
        6.0
       ],
       [
        24.9,
        5.7
       ],
       [
        23.7,
        5.3999999999999995
       ],
       [
        22.5,
        5.1
       ],
       [
        17.4,
        5.1
       ]
      ]
     ]
    ],
    "type": "MultiPolygon"
   },
   "properties": {
    "elevation": 10
   },
   "type": "Feature"
  },
  {
   "geometry": {
    "coordinates": [
     [
      [
       [
        20.7,
        11.7
       ],
       [
        20.4,
        12.299999999999999
       ],
       [
        19.2,
        12.299999999999999
       ],
       [
        18.599999999999998,
        12.6
       ],
       [
        18.3,
        13.5
       ],
       [
        17.7,
        14.399999999999999
       ],
       [
        17.7,
        16.8
       ],
       [
        18.0,
        17.4
       ],
       [
        18.599999999999998,
        18.0
       ],
       [
        20.099999999999998,
        18.599999999999998
       ],
       [
        21.9,
        18.3
       ],
       [
        22.8,
        17.7
       ],
       [
        23.099999999999998,
        17.099999999999998
       ],
       [
        23.4,
        16.2
       ],
       [
        23.4,
        15.0
       ],
       [
        23.099999999999998,
        13.5
       ],
       [
        22.5,
        12.299999999999999
       ],
       [
        21.599999999999998,
        11.7
       ],
       [
        20.7,
        11.7
       ]
      ]
     ],
     [
      [
       [
        10.799999999999999,
        9.0
       ],
       [
        10.2,
        9.299999999999999
       ],
       [
        9.299999999999999,
        9.9
       ],
       [
        8.4,
        10.799999999999999
       ],
       [
        8.1,
        10.799999999999999
       ],
       [
        7.5,
        11.4
       ],
       [
        7.5,
        11.7
       ],
       [
        6.6,
        12.6
       ],
       [
        6.3,
        13.2
       ],
       [
        6.0,
        13.799999999999999
       ],
       [
        6.0,
        14.7
       ],
       [
        5.7,
        15.6
       ],
       [
        5.3999999999999995,
        16.2
       ],
       [
        6.0,
        18.3
       ],
       [
        6.6,
        18.3
       ],
       [
        6.8999999999999995,
        18.9
       ],
       [
        8.1,
        19.5
       ],
       [
        9.9,
        20.099999999999998
       ],
       [
        12.6,
        20.7
       ],
       [
        14.7,
        20.7
       ],
       [
        15.6,
        19.5
       ],
       [
        15.899999999999999,
        18.9
       ],
       [
        16.2,
        18.3
       ],
       [
        16.2,
        14.1
       ],
       [
        16.8,
        12.6
       ],
       [
        16.8,
        10.799999999999999
       ],
       [
        16.5,
        10.5
       ],
       [
        16.5,
        9.9
       ],
       [
        15.6,
        9.299999999999999
       ],
       [
        14.399999999999999,
        9.0
       ],
       [
        10.799999999999999,
        9.0
       ]
      ]
     ]
    ],
    "type": "MultiPolygon"
   },
   "properties": {
    "elevation": 20
   },
   "type": "Feature"
  },
  {
   "geometry": {
    "coordinates": [
     [
      [
       [
        11.4,
        10.799999999999999
       ],
       [
        10.2,
        11.1
       ],
       [
        9.299999999999999,
        11.7
       ],
       [
        8.4,
        12.9
       ],
       [
        8.4,
        13.5
       ],
       [
        7.8,
        14.1
       ],
       [
        7.8,
        15.6
       ],
       [
        8.4,
        16.8
       ],
       [
        9.6,
        17.7
       ],
       [
        11.1,
        17.7
       ],
       [
        11.4,
        18.0
       ],
       [
        13.2,
        18.0
       ],
       [
        14.399999999999999,
        16.8
       ],
       [
        15.0,
        15.899999999999999
       ],
       [
        15.299999999999999,
        15.0
       ],
       [
        15.0,
        12.9
       ],
       [
        14.7,
        12.0
       ],
       [
        14.1,
        11.1
       ],
       [
        13.5,
        10.799999999999999
       ],
       [
        11.4,
        10.799999999999999
       ]
      ],
      [
       [
        10.799999999999999,
        13.799999999999999
       ],
       [
        11.7,
        13.799999999999999
       ],
       [
        12.6,
        14.7
       ],
       [
        12.0,
        15.0
       ],
       [
        11.1,
        15.0
       ],
       [
        10.799999999999999,
        15.0
       ],
       [
        10.799999999999999,
        13.799999999999999
       ]
      ]
     ]
    ],
    "type": "MultiPolygon"
   },
   "properties": {
    "elevation": 30
   },
   "type": "Feature"
  }
 ],
 "type": "FeatureCollection"
}
